NORAD_CAT_ID,OBJECT_NAME,OBJECT_TYPE,EPOCH,MEAN_MOTION,ECCENTRICITY,INCLINATION,RA_OF_ASC_NODE,ARG_OF_PERICENTER,MEAN_ANOMALY,BSTAR,MEAN_MOTION_DOT,MEAN_MOTION_DDOT,TLE_LINE0,TLE_LINE1,TLE_LINE2,SEMIMAJOR_AXIS,PERIOD,APOGEE,PERIGEE,DECAYED
53035.0,STARLINK-4157,PAYLOAD,2023-10-23 11:24:21,15.08840167,0.0001592,53.2171,11.6925,86.5885,273.5289,0.00016354,2.316e-05,0.0,0 STARLINK-4157,1 53035U 22076BB  23296.47525148  .00002316  00000-0  16354-3 0  9995,2 53035  53.2171  11.6925 0001592  86.5885 273.5289 15.08840167 72519,6917.88,95.438,540.846,538.644,0.0
53035.0,STARLINK-4157,PAYLOAD,2023-10-24 11:15:08,15.0884149,0.0001438,53.2161,7.2311,95.8851,264.2305,0.00020235,2.934e-05,0.0,0 STARLINK-4157,1 53035U 22076BB  23297.46885248  .00002934  00000-0  20235-3 0  9994,2 53035  53.2161   7.2311 0001438  95.8851 264.2305 15.08841490 72205,6917.876,95.437,540.736,538.746,0.0
53035.0,STARLINK-4157,PAYLOAD,2023-10-25 11:05:55,15.08846431,0.0001565,53.2171,2.769,102.7154,257.4013,0.00018932,2.727e-05,0.0,0 STARLINK-4157,1 53035U 22076BB  23298.46244943  .00002727  00000-0  18932-3 0  9997,2 53035  53.2171   2.7690 0001565 102.7154 257.4013 15.08846431 72818,6917.861,95.437,540.808,538.643,0.0
53035.0,STARLINK-4157,PAYLOAD,2023-10-26 10:56:42,15.08846647,0.0001561,53.2177,358.3092,103.6777,256.4389,0.00015363,2.158e-05,0.0,0 STARLINK-4157,1 53035U 22076BB  23299.45604809  .00002158  00000-0  15363-3 0  9991,2 53035  53.2177 358.3092 0001561 103.6777 256.4389 15.08846647 72967,6917.86,95.437,540.805,538.645,0.0
53035.0,STARLINK-4157,PAYLOAD,2023-10-26 20:29:01,15.08844272,0.0001552,53.2173,356.5255,97.7887,262.3282,9.2968e-05,1.192e-05,0.0,0 STARLINK-4157,1 53035U 22076BB  23299.85348876  .00001192  00000-0  92968-4 0  9998,2 53035  53.2173 356.5255 0001552  97.7887 262.3282 15.08844272 72565,6917.867,95.437,540.806,538.659,0.0
53035.0,STARLINK-4157,PAYLOAD,2023-10-27 10:47:29,15.08853368,0.0001646,53.2177,353.8524,94.321,265.797,0.00017559,2.509e-05,0.0,0 STARLINK-4157,1 53035U 22076BB  23300.44964373  .00002509  00000-0  17559-3 0  9997,2 53035  53.2177 353.8524 0001646  94.3210 265.7970 15.08853368 72652,6917.84,95.437,540.843,538.566,0.0
53035.0,STARLINK-4157,PAYLOAD,2023-10-27 20:19:48,15.08845248,0.0001531,53.2176,352.0653,87.878,272.2388,0.00010958,1.457e-05,0.0,0 STARLINK-4157,1 53035U 22076BB  23300.84708534  .00001457  00000-0  10958-3 0  9993,2 53035  53.2176 352.0653 0001531  87.8780 272.2388 15.08845248 73179,6917.864,95.437,540.788,538.67,0.0
53035.0,STARLINK-4157,PAYLOAD,2023-10-28 09:02:54,15.08827166,0.0001628,53.2169,349.687,82.811,277.3067,-0.00017445,-3.062e-05,0.0,0 STARLINK-4157,1 53035U 22076BB  23301.37701686 -.00003062  00000-0 -17445-3 0  9997,2 53035  53.2169 349.6870 0001628  82.8110 277.3067 15.08827166 73251,6917.92,95.438,540.911,538.658,0.0
53035.0,STARLINK-4157,PAYLOAD,2023-10-28 20:10:35,15.08838229,0.000181,53.2184,347.6063,83.5467,276.5731,-3.4892e-05,-8.43e-06,0.0,0 STARLINK-4157,1 53035U 22076BB  23301.84069396 -.00000843  00000-0 -34892-4 0  9994,2 53035  53.2184 347.6063 0001810  83.5467 276.5731 15.08838229 73325,6917.886,95.438,541.003,538.499,0.0
53035.0,STARLINK-4157,PAYLOAD,2023-10-29 12:04:26,15.08866086,0.0001694,53.2161,344.632,82.1993,277.9192,0.0011873,0.00018672,0.0,0 STARLINK-4157,1 53035U 22076BB  23302.50308881  .00018672  00000-0  11873-2 0  9992,2 53035  53.2161 344.6320 0001694  82.1993 277.9192 15.08866086 73421,6917.801,95.436,540.838,538.494,0.0
53035.0,STARLINK-4157,PAYLOAD,2023-10-30 02:22:55,15.08849711,0.00016,53.216,341.9558,86.8939,273.2237,0.00040111,6.103e-05,0.0,0 STARLINK-4157,1 53035U 22076BB  23303.09925129  .00006103  00000-0  40111-3 0  9991,2 53035  53.2160 341.9558 0001600  86.8939 273.2237 15.08849711 73516,6917.851,95.437,540.823,538.609,0.0
53035.0,STARLINK-4157,PAYLOAD,2023-10-30 10:19:51,15.08843101,0.0001723,53.2161,340.4674,87.692,272.4269,0.0010604,0.0001663,0.0,0 STARLINK-4157,1 53035U 22076BB  23303.43045407  .00016630  00000-0  10604-2 0  9990,2 53035  53.2161 340.4674 0001723  87.6920 272.4269 15.08843101 73103,6917.871,95.437,540.928,538.544,0.0
53035.0,STARLINK-4157,PAYLOAD,2023-10-31 11:46:01,15.08838605,0.0001776,53.2173,335.7087,89.958,270.1616,0.00026968,4.006e-05,0.0,0 STARLINK-4157,1 53035U 22076BB  23304.49030024  .00004006  00000-0  26968-3 0  9991,2 53035  53.2173 335.7087 0001776  89.9580 270.1616 15.08838605 73728,6917.885,95.438,540.978,538.521,0.0
53035.0,STARLINK-4157,PAYLOAD,2023-10-31 19:42:57,15.08836618,0.0001784,53.2168,334.2218,90.2589,269.8608,0.00032406,4.873e-05,0.0,0 STARLINK-4157,1 53035U 22076BB  23304.82150326  .00004873  00000-0  32406-3 0  9992,2 53035  53.2168 334.2218 0001784  90.2589 269.8608 15.08836618 73318,6917.891,95.438,540.99,538.522,0.0
53035.0,STARLINK-4157,PAYLOAD,2023-11-01 08:26:02,15.08854081,0.0001629,53.2169,331.8441,90.8494,269.2685,0.00059023,9.122e-05,0.0,0 STARLINK-4157,1 53035U 22076BB  23305.35141866  .00009122  00000-0  59023-3 0  9996,2 53035  53.2169 331.8441 0001629  90.8494 269.2685 15.08854081 73390,6917.837,95.437,540.829,538.575,0.0
53035.0,STARLINK-4157,PAYLOAD,2023-11-02 05:06:03,15.08850487,0.0001908,53.217,327.9769,92.4937,267.6274,0.00026558,3.942e-05,0.0,0 STARLINK-4157,1 53035U 22076BB  23306.21253816  .00003942  00000-0  26558-3 0  9992,2 53035  53.2170 327.9769 0001908  92.4937 267.6274 15.08850487 73988,6917.848,95.437,541.033,538.393,0.0
53035.0,STARLINK-4157,PAYLOAD,2023-11-02 11:27:35,15.088487,0.0001789,53.2163,326.7864,90.7252,269.3945,0.00019304,2.786e-05,0.0,0 STARLINK-4157,1 53035U 22076BB  23306.47749718  .00002786  00000-0  19304-3 0  9997,2 53035  53.2163 326.7864 0001789  90.7252 269.3945 15.08848700 73564,6917.854,95.437,540.956,538.481,0.0
53035.0,STARLINK-4157,PAYLOAD,2023-11-03 04:56:50,15.08842436,0.0002112,53.2159,323.5126,108.5871,251.5351,-2.312e-05,-6.56e-06,0.0,0 STARLINK-4157,1 53035U 22076BB  23307.20614036 -.00000656  00000-0 -23120-4 0  9991,2 53035  53.2159 323.5126 0002112 108.5871 251.5351 15.08842436 74139,6917.873,95.437,541.199,538.277,0.0
53035.0,STARLINK-4157,PAYLOAD,2023-11-03 08:07:36,15.08841545,0.0001775,53.2167,322.9232,91.8673,268.2522,-1.1729e-06,-3.07e-06,0.0,0 STARLINK-4157,1 53035U 22076BB  23307.33861887 -.00000307  00000-0 -11729-5 0  9999,2 53035  53.2167 322.9232 0001775  91.8673 268.2522 15.08841545 73692,6917.876,95.437,540.969,538.513,0.0
53035.0,STARLINK-4157,PAYLOAD,2023-11-03 17:39:55,15.08838219,0.0001765,53.217,321.1372,89.6237,270.4958,2.931e-05,1.78e-06,0.0,0 STARLINK-4157,1 53035U 22076BB  23307.73606178  .00000178  00000-0  29310-4 0  9991,2 53035  53.2170 321.1372 0001765  89.6237 270.4958 15.08838219 73751,6917.886,95.438,540.972,538.53,0.0
53035.0,STARLINK-4157,PAYLOAD,2023-11-04 07:58:23,15.08841576,0.0001736,53.2174,318.4646,92.6484,267.4706,9.1396e-05,1.167e-05,0.0,0 STARLINK-4157,1 53035U 22076BB  23308.33222193  .00001167  00000-0  91396-4 0  9991,2 53035  53.2174 318.4646 0001736  92.6484 267.4706 15.08841576 74303,6917.876,95.437,540.942,538.54,0.0
53035.0,STARLINK-4157,PAYLOAD,2023-11-04 17:30:42,15.08841032,0.0001841,53.2175,316.6805,82.2536,277.8665,7.0645e-05,8.36e-06,0.0,0 STARLINK-4157,1 53035U 22076BB  23308.72966280  .00000836  00000-0  70645-4 0  9992,2 53035  53.2175 316.6805 0001841  82.2536 277.8665 15.08841032 73902,6917.877,95.437,541.016,538.469,0.0
53035.0,STARLINK-4157,PAYLOAD,2023-11-05 09:24:33,15.08851378,0.0001696,53.2159,313.7044,87.634,272.4846,0.00025954,3.846e-05,0.0,0 STARLINK-4157,1 53035U 22076BB  23309.39205862  .00003846  00000-0  25954-3 0  9994,2 53035  53.2159 313.7044 0001696  87.6340 272.4846 15.08851378 74465,6917.846,95.437,540.884,538.537,0.0
53035.0,STARLINK-4157,PAYLOAD,2023-11-05 17:21:29,15.08843175,0.0001498,53.2165,312.2162,94.0471,266.0692,6.3284e-05,7.19e-06,0.0,0 STARLINK-4157,1 53035U 22076BB  23309.72326093  .00000719  00000-0  63284-4 0  9996,2 53035  53.2165 312.2162 0001498  94.0471 266.0692 15.08843175 74514,6917.871,95.437,540.772,538.699,0.0
53035.0,STARLINK-4157,PAYLOAD,2023-11-06 07:39:56,15.08872803,0.0001803,53.2168,309.5427,91.0021,269.1178,0.00061123,9.462e-05,0.0,0 STARLINK-4157,1 53035U 22076BB  23310.31940782  .00009462  00000-0  61123-3 0  9993,2 53035  53.2168 309.5427 0001803  91.0021 269.1178 15.08872803 74601,6917.78,95.435,540.892,538.398,0.0
53035.0,STARLINK-4157,PAYLOAD,2023-11-06 17:12:16,15.08844852,0.0002166,53.217,307.7579,79.7665,280.3571,4.7742e-05,4.72e-06,0.0,0 STARLINK-4157,1 53035U 22076BB  23310.71685767  .00000472  00000-0  47742-4 0  9990,2 53035  53.2170 307.7579 0002166  79.7665 280.3571 15.08844852 74663,6917.866,95.437,541.229,538.232,0.0
53035.0,STARLINK-4157,PAYLOAD,2023-11-07 04:20:00,15.08804018,0.0001482,53.2166,305.6747,87.6411,272.4751,-0.00063347,-0.00010345,0.0,0 STARLINK-4157,1 53035U 22076BB  23311.18055571 -.00010345  00000-0 -63347-3 0  9996,2 53035  53.2166 305.6747 0001482  87.6411 272.4751 15.08804018 74739,6917.99,95.44,540.881,538.83,0.0
53035.0,STARLINK-4157,PAYLOAD,2023-11-07 09:06:09,15.08814345,0.0001339,53.2158,304.7833,92.8136,267.3009,-0.00040344,-6.698e-05,0.0,0 STARLINK-4157,1 53035U 22076BB  23311.37927547 -.00006698  00000-0 -40344-3 0  9996,2 53035  53.2158 304.7833 0001339  92.8136 267.3009 15.08814345 74765,6917.959,95.439,540.75,538.897,0.0
53035.0,STARLINK-4157,PAYLOAD,2023-11-07 17:03:05,15.08818009,0.0001281,53.2158,303.2974,96.5191,263.5947,-0.00017209,-3.024e-05,0.0,0 STARLINK-4157,1 53035U 22076BB  23311.71047948 -.00003024  00000-0 -17209-3 0  9996,2 53035  53.2158 303.2974 0001281  96.5191 263.5947 15.08818009 74819,6917.948,95.439,540.699,538.926,0.0
53035.0,STARLINK-4157,PAYLOAD,2023-11-08 05:46:10,15.08840315,0.0001472,53.2165,300.9171,95.6795,264.4365,0.00027388,4.074e-05,0.0,0 STARLINK-4157,1 53035U 22076BB  23312.24039762  .00004074  00000-0  27388-3 0  9993,2 53035  53.2165 300.9171 0001472  95.6795 264.4365 15.08840315 74899,6917.879,95.438,540.763,538.726,0.0
